start=new Date('2021-09-29T00:00:00.000Z').valueOf();
sats=[{"PERIOD":"95.592","MEAN_MOTION_DOT":"0.00001578","REV_AT_EPOCH":"3892","CLASSIFICATION_TYPE":"U","EPOCH":"2021-09-28T18:03:53.075232","LAUNCH_DATE":"2021-01-20","ECCENTRICITY":"0.00024550","APOAPSIS":"548.894","CENTER_NAME":"EARTH","GP_ID":"185722944","RCS_SIZE":"LARGE","SITE":"AFETR","FILE":"3132913","BSTAR":"0.00012479000000","TIME_SYSTEM":"UTC","OBJECT_TYPE":"PAYLOAD","OBJECT_ID":"2021-005M","ELEMENT_SET_NO":"999","MEAN_MOTION":"15.06406451","COUNTRY_CODE":"US","MEAN_ANOMALY":"284.2856","SEMIMAJOR_AXIS":"6925.329","OBJECT_NAME":"STARLINK-2070","MEAN_MOTION_DDOT":"0.0000000000000","EPHEMERIS_TYPE":"0","ARG_OF_PERICENTER":"75.8406","REF_FRAME":"TEME","RA_OF_ASC_NODE":"112.2664","PERIAPSIS":"545.494","NORAD_CAT_ID":"47360","INCLINATION":"53.0561","DECAY_DATE":null,"TLE_LINE1":"1 47360U 21005M   21271.75269763  .00001578  00000-0  12479-3 0  9993","TLE_LINE2":"2 47360  53.0561 112.2664 0002455  75.8406 284.2856 15.06406451 38929","MEAN_ELEMENT_THEORY":"SGP4"},{"OBJECT_TYPE":"PAYLOAD","SITE":"AFETR","TIME_SYSTEM":"UTC","BSTAR":"-0.00000928080000","FILE":"3132662","ELEMENT_SET_NO":"999","OBJECT_ID":"2021-005N","COUNTRY_CODE":"US","MEAN_MOTION":"15.06390309","LAUNCH_DATE":"2021-01-20","CLASSIFICATION_TYPE":"U","EPOCH":"2021-09-28T06:41:11.590368","ECCENTRICITY":"0.00023390","REV_AT_EPOCH":"3877","PERIOD":"95.593","MEAN_MOTION_DOT":"-0.00000420","CENTER_NAME":"EARTH","RCS_SIZE":"LARGE","GP_ID":"185715516","APOAPSIS":"548.863","NORAD_CAT_ID":"47361","PERIAPSIS":"545.623","TLE_LINE1":"1 47361U 21005N   21271.27860637 -.00000420  00000-0 -92808-5 0  9991","DECAY_DATE":null,"MEAN_ELEMENT_THEORY":"SGP4","TLE_LINE2":"2 47361  53.0523 119.3866 0002339  67.8792 292.2445 15.06390309 38770","INCLINATION":"53.0523","MEAN_MOTION_DDOT":"0.0000000000000","OBJECT_NAME":"STARLINK-2071","SEMIMAJOR_AXIS":"6925.378","EPHEMERIS_TYPE":"0","MEAN_ANOMALY":"292.2445","ARG_OF_PERICENTER":"67.8792","REF_FRAME":"TEME","RA_OF_ASC_NODE":"119.3866"},{"ECCENTRICITY":"0.00019890","LAUNCH_DATE":"2021-01-20","CLASSIFICATION_TYPE":"U","EPOCH":"2021-09-28T09:21:44.704800","REV_AT_EPOCH":"3837","MEAN_MOTION_DOT":"0.00000259","PERIOD":"95.592","RCS_SIZE":"LARGE","GP_ID":"185715766","CENTER_NAME":"EARTH","APOAPSIS":"548.603","OBJECT_TYPE":"PAYLOAD","TIME_SYSTEM":"UTC","BSTAR":"0.00003629600000","FILE":"3132662","SITE":"AFETR","MEAN_MOTION":"15.06395943","COUNTRY_CODE":"US","ELEMENT_SET_NO":"999","OBJECT_ID":"2021-005P","EPHEMERIS_TYPE":"0","MEAN_MOTION_DDOT":"0.0000000000000","OBJECT_NAME":"STARLINK-2076","SEMIMAJOR_AXIS":"6925.361","MEAN_ANOMALY":"283.6545","REF_FRAME":"TEME","RA_OF_ASC_NODE":"148.9035","ARG_OF_PERICENTER":"76.4665","NORAD_CAT_ID":"47362","PERIAPSIS":"545.849","MEAN_ELEMENT_THEORY":"SGP4","TLE_LINE2":"2 47362  53.0536 148.9035 0001989  76.4665 283.6545 15.06395943 38376","TLE_LINE1":"1 47362U 21005P   21271.39010075  .00000259  00000-0  36296-4 0  9994","DECAY_DATE":null,"INCLINATION":"53.0536"},{"ARG_OF_PERICENTER":"77.1930","RA_OF_ASC_NODE":"148.8825","REF_FRAME":"TEME","MEAN_MOTION_DDOT":"0.0000000000000","OBJECT_NAME":"STARLINK-2077","SEMIMAJOR_AXIS":"6925.336","EPHEMERIS_TYPE":"0","MEAN_ANOMALY":"282.9247","TLE_LINE1":"1 47363U 21005Q   21271.39377519  .00000580  00000-0  57821-4 0  9998","DECAY_DATE":null,"MEAN_ELEMENT_THEORY":"SGP4","TLE_LINE2":"2 47363  53.0533 148.8825 0001682  77.1930 282.9247 15.06404065 38370","INCLINATION":"53.0533","NORAD_CAT_ID":"47363","PERIAPSIS":"546.036","CENTER_NAME":"EARTH","RCS_SIZE":"LARGE","GP_ID":"185716515","APOAPSIS":"548.366","LAUNCH_DATE":"2021-01-20","CLASSIFICATION_TYPE":"U","EPOCH":"2021-09-28T09:27:02.176416","ECCENTRICITY":"0.00016820","REV_AT_EPOCH":"3837","MEAN_MOTION_DOT":"0.00000580","PERIOD":"95.592","ELEMENT_SET_NO":"999","OBJECT_ID":"2021-005Q","MEAN_MOTION":"15.06404065","COUNTRY_CODE":"US","OBJECT_TYPE":"PAYLOAD","SITE":"AFETR","TIME_SYSTEM":"UTC","BSTAR":"0.00005782100000","FILE":"3132662"},{"ELEMENT_SET_NO":"999","OBJECT_ID":"2021-005R","MEAN_MOTION":"15.06394493","COUNTRY_CODE":"US","SITE":"AFETR","TIME_SYSTEM":"UTC","FILE":"3132662","BSTAR":"0.00008683100000","OBJECT_TYPE":"PAYLOAD","APOAPSIS":"548.638","CENTER_NAME":"EARTH","RCS_SIZE":"LARGE","GP_ID":"185717268","REV_AT_EPOCH":"3836","PERIOD":"95.592","MEAN_MOTION_DOT":"0.00001012","LAUNCH_DATE":"2021-01-20","EPOCH":"2021-09-28T08:39:17.315712","CLASSIFICATION_TYPE":"U","ECCENTRICITY":"0.00020330","INCLINATION":"53.0542","TLE_LINE1":"1 47364U 21005R   21271.36061708  .00001012  00000-0  86831-4 0  9990","DECAY_DATE":null,"MEAN_ELEMENT_THEORY":"SGP4","TLE_LINE2":"2 47364  53.0542 149.0134 0002033  75.8400 284.2814 15.06394493 38362","PERIAPSIS":"545.823","NORAD_CAT_ID":"47364","ARG_OF_PERICENTER":"75.8400","REF_FRAME":"TEME","RA_OF_ASC_NODE":"149.0134","MEAN_ANOMALY":"284.2814","OBJECT_NAME":"STARLINK-2079","MEAN_MOTION_DDOT":"0.0000000000000","SEMIMAJOR_AXIS":"6925.365","EPHEMERIS_TYPE":"0"},{"SITE":"AFETR","BSTAR":"0.00021175000000","FILE":"3133152","TIME_SYSTEM":"UTC","OBJECT_TYPE":"PAYLOAD","ELEMENT_SET_NO":"999","OBJECT_ID":"2021-005S","COUNTRY_CODE":"US","MEAN_MOTION":"15.73241444","MEAN_MOTION_DOT":"0.00029262","PERIOD":"91.531","REV_AT_EPOCH":"4037","EPOCH":"2021-09-28T17:34:49.605312","CLASSIFICATION_TYPE":"U","LAUNCH_DATE":"2021-01-20","ECCENTRICITY":"0.00031450","APOAPSIS":"351.758","CENTER_NAME":"EARTH","GP_ID":"185728391","RCS_SIZE":"LARGE","PERIAPSIS":"347.526","NORAD_CAT_ID":"47365","INCLINATION":"53.0510","DECAY_DATE":null,"TLE_LINE1":"1 47365U 21005S   21271.73251858  .00029262  00000-0  21175-3 0  9995","TLE_LINE2":"2 47365  53.0510  55.3987 0003145  14.3099 345.8008 15.73241444 40374","MEAN_ELEMENT_THEORY":"SGP4","MEAN_ANOMALY":"345.8008","SEMIMAJOR_AXIS":"6727.777","MEAN_MOTION_DDOT":"0.0000000000000","OBJECT_NAME":"STARLINK-2080","EPHEMERIS_TYPE":"0","ARG_OF_PERICENTER":"14.3099","REF_FRAME":"TEME","RA_OF_ASC_NODE":"55.3987"},{"MEAN_ANOMALY":"285.9559","EPHEMERIS_TYPE":"0","SEMIMAJOR_AXIS":"6925.353","OBJECT_NAME":"STARLINK-2081","MEAN_MOTION_DDOT":"0.0000000000000","REF_FRAME":"TEME","RA_OF_ASC_NODE":"147.2658","ARG_OF_PERICENTER":"74.1655","PERIAPSIS":"545.802","NORAD_CAT_ID":"47366","INCLINATION":"53.0555","TLE_LINE2":"2 47366  53.0555 147.2658 0002045  74.1655 285.9559 15.06398508 38428","MEAN_ELEMENT_THEORY":"SGP4","DECAY_DATE":null,"TLE_LINE1":"1 47366U 21005T   21271.75131887 -.00000603  00000-0 -21539-4 0  9992","PERIOD":"95.592","MEAN_MOTION_DOT":"-0.00000603","REV_AT_EPOCH":"3842","ECCENTRICITY":"0.00020450","EPOCH":"2021-09-28T18:01:53.950368","CLASSIFICATION_TYPE":"U","LAUNCH_DATE":"2021-01-20","APOAPSIS":"548.634","GP_ID":"185727992","RCS_SIZE":"LARGE","CENTER_NAME":"EARTH","BSTAR":"-0.00002153900000","FILE":"3133127","TIME_SYSTEM":"UTC","SITE":"AFETR","OBJECT_TYPE":"PAYLOAD","COUNTRY_CODE":"US","MEAN_MOTION":"15.06398508","OBJECT_ID":"2021-005T","ELEMENT_SET_NO":"999"},{"SITE":"AFETR","TIME_SYSTEM":"UTC","BSTAR":"0.00006784500000","FILE":"3132662","OBJECT_TYPE":"PAYLOAD","OBJECT_ID":"2021-005U","ELEMENT_SET_NO":"999","COUNTRY_CODE":"US","MEAN_MOTION":"15.06391205","REV_AT_EPOCH":"3837","PERIOD":"95.593","MEAN_MOTION_DOT":"0.00000729","LAUNCH_DATE":"2021-01-20","EPOCH":"2021-09-28T09:05:49.759296","CLASSIFICATION_TYPE":"U","ECCENTRICITY":"0.00022290","APOAPSIS":"548.784","CENTER_NAME":"EARTH","RCS_SIZE":"LARGE","GP_ID":"185717016","PERIAPSIS":"545.697","NORAD_CAT_ID":"47367","INCLINATION":"53.0543","TLE_LINE1":"1 47367U 21005U   21271.37904814  .00000729  00000-0  67845-4 0  9996","DECAY_DATE":null,"MEAN_ELEMENT_THEORY":"SGP4","TLE_LINE2":"2 47367  53.0543 148.9559 0002229  78.6484 281.4755 15.06391205 38377","MEAN_ANOMALY":"281.4755","MEAN_MOTION_DDOT":"0.0000000000000","OBJECT_NAME":"STARLINK-2082","SEMIMAJOR_AXIS":"6925.376","EPHEMERIS_TYPE":"0","ARG_OF_PERICENTER":"78.6484","REF_FRAME":"TEME","RA_OF_ASC_NODE":"148.9559"},{"RA_OF_ASC_NODE":"148.9831","REF_FRAME":"TEME","ARG_OF_PERICENTER":"75.4611","MEAN_ANOMALY":"284.6563","EPHEMERIS_TYPE":"0","SEMIMAJOR_AXIS":"6925.371","MEAN_MOTION_DDOT":"0.0000000000000","OBJECT_NAME":"STARLINK-2084","INCLINATION":"53.0535","TLE_LINE2":"2 47368  53.0535 148.9831 0001667  75.4611 284.6563 15.06392528 38375","MEAN_ELEMENT_THEORY":"SGP4","DECAY_DATE":null,"TLE_LINE1":"1 47368U 21005V   21271.37166866 -.00000239  00000-0  28479-5 0  9992","PERIAPSIS":"546.082","NORAD_CAT_ID":"47368","APOAPSIS":"548.391","GP_ID":"185716768","RCS_SIZE":"LARGE","CENTER_NAME":"EARTH","MEAN_MOTION_DOT":"-0.00000239","PERIOD":"95.593","REV_AT_EPOCH":"3837","ECCENTRICITY":"0.00016670","CLASSIFICATION_TYPE":"U","EPOCH":"2021-09-28T08:55:12.172224","LAUNCH_DATE":"2021-01-20","MEAN_MOTION":"15.06392528","COUNTRY_CODE":"US","ELEMENT_SET_NO":"999","OBJECT_ID":"2021-005V","BSTAR":"0.00000284790000","FILE":"3132662","TIME_SYSTEM":"UTC","SITE":"AFETR","OBJECT_TYPE":"PAYLOAD"},{"ECCENTRICITY":"0.00020250","CLASSIFICATION_TYPE":"U","EPOCH":"2021-09-28T07:27:37.427040","LAUNCH_DATE":"2021-01-20","PERIOD":"95.592","MEAN_MOTION_DOT":"0.00000305","REV_AT_EPOCH":"3864","GP_ID":"185715517","RCS_SIZE":"LARGE","CENTER_NAME":"EARTH","APOAPSIS":"548.614","OBJECT_TYPE":"PAYLOAD","FILE":"3132662","BSTAR":"0.00003939700000","TIME_SYSTEM":"UTC","SITE":"AFETR","MEAN_MOTION":"15.06400550","COUNTRY_CODE":"US","ELEMENT_SET_NO":"999","OBJECT_ID":"2021-005W","EPHEMERIS_TYPE":"0","SEMIMAJOR_AXIS":"6925.347","OBJECT_NAME":"STARLINK-2085","MEAN_MOTION_DDOT":"0.0000000000000","MEAN_ANOMALY":"282.8898","REF_FRAME":"TEME","RA_OF_ASC_NODE":"129.2522","ARG_OF_PERICENTER":"77.2317","NORAD_CAT_ID":"47369","PERIAPSIS":"545.809","TLE_LINE2":"2 47369  53.0564 129.2522 0002025  77.2317 282.8898 15.06400550 38645","MEAN_ELEMENT_THEORY":"SGP4","DECAY_DATE":null,"TLE_LINE1":"1 47369U 21005W   21271.31084985  .00000305  00000-0  39397-4 0  9991","INCLINATION":"53.0564"}];
